STARLINK-32354          
1 61932U 24207W   26068.00482753  .00032811  00000+0  11958-2 0  9997
2 61932  43.0041 289.3865 0001982 289.2672  70.7966 15.27599767 75063
TOMORROW-S3             
1 62392U 24247R   26068.49782200  .00007664  00000+0  28858-3 0  9991
2 62392  44.9999 117.9871 0000396 320.9462  39.1392 15.27672122 67708
